IRIDIUM 159             
1 43578U 18061K   23309.42405380  .00000036  00000+0  57857-5 0  9991
2 43578  86.3932  95.7438 0001967  91.4211 268.7210 14.34215937276535
IRIDIUM 180             
1 43922U 19002A   23309.49332076  .00000552  00000+0  19010-3 0  9998
2 43922  86.4010  32.5765 0002307  90.7225 269.4235 14.34219043252153
IRIDIUM 176             
1 43923U 19002B   23309.68843729  .00002502  00000+0  39304-3 0  9997
2 43923  86.6140  32.5277 0002305  92.8559 267.2922 14.72235931258813
IRIDIUM 168             
1 43924U 19002C   23309.76605110  .00000704  00000+0  24443-3 0  9997
2 43924  86.4015  32.5129 0002211  90.5861 269.5588 14.34217907252173
IRIDIUM 173             
1 43925U 19002D   23309.61382994  .00000601  00000+0  20766-3 0  9994
2 43925  86.4013  32.5046 0002032  90.6906 269.4522 14.34217250252136
IRIDIUM 169             
1 43926U 19002E   23309.59925804  .00000800  00000+0  25498-3 0  9993
2 43926  86.4230  64.1193 0001492 213.9575 146.1528 14.38613294252985
IRIDIUM 172             
1 43927U 19002F   23309.60748523  .00000619  00000+0  21395-3 0  9997
2 43927  86.4012  32.5121 0002158  91.6140 268.5303 14.34221028252147
IRIDIUM 175             
1 43928U 19002G   23309.61437016  .00002325  00000+0  36497-3 0  9996
2 43928  86.1550  18.4050 0002243  95.1344 265.0129 14.72227652258792
